CUTE-1 (CO-55)          
1 27844U 03031E   22017.47033351  .00000154  00000+0  88968-4 0  9992
2 27844  98.6801  27.4316 0009972 173.4069 186.7242 14.22370201962402
CUBESAT XI-IV (CO-57)   
1 27848U 03031J   22017.52768445  .00000117  00000+0  72923-4 0  9994
2 27848  98.6851  28.0334 0009594 186.9127 173.1919 14.21938695962230
CUBESAT XI-V            
1 28895U 05043F   22017.62827861  .00000538  00000+0  11138-3 0  9998
2 28895  98.0842 151.5793 0015536 254.6644 105.2842 14.64056038865342
CUTE-1.7+APD II (CO-65) 
1 32785U 08021C   22017.45730280  .00001261  00000+0  13959-3 0  9996
2 32785  97.6382 353.3407 0013421  20.8246 339.3516 14.88994852744014
AAUSAT-II               
1 32788U 08021F   22017.48435166  .00002299  00000+0  20888-3 0  9998
2 32788  97.5205   8.4219 0010086 272.2290  87.7777 14.96169169745855
DELFI-C3 (DO-64)        
1 32789U 08021G   22017.58339728  .00005851  00000+0  35901-3 0  9996
2 32789  97.3556  49.6132 0012747 121.7012 238.5463 15.10418076749134
SEEDS II (CO-66)        
1 32791U 08021J   22017.43055895  .00002010  00000+0  20444-3 0  9993
2 32791  97.5946 358.9885 0012516 340.3383  19.7352 14.91800484744673
SWISSCUBE               
1 35932U 09051B   22017.54170551  .00000420  00000+0  10518-3 0  9990
2 35932  98.5836 229.1182 0008087 144.1185 216.0557 14.56659992654125
BEESAT-1                
1 35933U 09051C   22017.56859260  .00000363  00000+0  92216-4 0  9996
2 35933  98.5785 230.8681 0006095 153.7277 206.4230 14.56702446654200
ITUPSAT1                
1 35935U 09051E   22017.56337473  .00000339  00000+0  88412-4 0  9991
2 35935  98.5887 230.9552 0008350 158.5857 201.5690 14.55826430653929
TISAT 1                 
1 36799U 10035E   22017.53696168  .00001518  00000+0  15528-3 0  9997
2 36799  98.1938 221.9812 0010954 228.1419 131.8865 14.92125652625254
M-CUBED & EXP-1 PRIME   
1 37855U 11061F   22017.54743896  .00004962  00000+0  23561-3 0  9995
2 37855 101.7188  57.4459 0162323 153.2869 207.6822 15.09258814558458
AEROCUBE 4.5A           
1 38767U 12048K   22017.58878067  .00002363  00000+0  17942-3 0  9996
2 38767  64.6637 224.1197 0175023 303.7137  54.7396 14.93536169128241
AEROCUBE 4.5B           
1 38768U 12048L   22017.58232979  .00003686  00000+0  24984-3 0  9996
2 38768  64.6652 181.9269 0165367 298.8385  59.6215 14.97654092128545
STRAND-1                
1 39090U 13009E   22017.50819879  .00000152  00000+0  68140-4 0  9993
2 39090  98.4107 219.4940 0009244   8.2469 351.8867 14.35231704465743
BRITE-AUSTRIA           
1 39091U 13009F   22017.56080360  .00000076  00000+0  41495-4 0  9994
2 39091  98.4115 218.6983 0010733  13.9658 346.1823 14.35222164465782
SOMP                    
1 39134U 13015E   22017.59666561  .00007229  00000+0  29857-3 0  9999
2 39134  64.8613 195.2851 0028271 302.8520  56.9888 15.24403736483836
BEESAT-3                
1 39135U 13015F   22017.01922240  .00006618  00000+0  30483-3 0  9994
2 39135  64.8657 230.0535 0028084 313.4592  46.4199 15.20780057483065
BEESAT-2                
1 39136U 13015G   22017.31086741  .00006025  00000+0  28678-3 0  9990
2 39136  64.8743 236.4428 0011561 257.2530 102.7305 15.20024410482925
NEE-01 PEGASO           
1 39151U 13018B   22017.54725972  .00000732  00000+0  10231-3 0  9996
2 39151  97.9856 123.8790 0017461  28.7137 331.5032 14.80538364471340
ESTCUBE 1               
1 39161U 13021C   22017.46015442  .00000464  00000+0  80497-4 0  9990
2 39161  97.9248  98.5722 0009137 177.8132 182.3134 14.72638304467246
POPACS 1                
1 39268U 13055D   22017.48455870  .00011422  00000+0  30297-3 0  9998
2 39268  80.9982  41.3195 0587860 294.9760  59.1469 14.46136646431452
POPACS 2                
1 39269U 13055E   22017.45584130  .00006702  00000+0  18486-3 0  9999
2 39269  81.0132  93.8593 0659814  71.1186 296.0324 14.30045586428589
POPACS 3                
1 39270U 13055F   22017.60297808  .00006650  00000+0  20270-3 0  9997
2 39270  81.0164 123.9704 0698172 156.5666 206.9045 14.19834058407210
ZACUBE-1 (TSHEPISOSAT)  
1 39417U 13066B   22017.46819647  .00000921  00000+0  11985-3 0  9995
2 39417  97.6179 356.0227 0058338 178.1490 181.9951 14.81777894440768
WNISAT-1                
1 39423U 13066H   22017.52236800  .00000223  00000+0  54146-4 0  9995
2 39423  97.7725 269.9340 0173481 249.1955 109.0590 14.53319527432533
TRITON-1                
1 39427U 13066M   22017.56554468  .00001177  00000+0  19237-3 0  9996
2 39427  97.8006 320.1062 0113635  27.4936 333.2219 14.68467494436639
DELFI-N3XT              
1 39428U 13066N   22017.55767301  .00001894  00000+0  30170-3 0  9993
2 39428  97.8033 318.6122 0120141  40.5375 320.4702 14.68370687436386
GOMX-1                  
1 39430U 13066Q   22017.47181251  .00000377  00000+0  76375-4 0  9994
2 39430  97.8161 293.2717 0150321 160.1936 200.5193 14.59809604434267
CUBEBUG-2 (LO-74)       
1 39440U 13066AA  22017.48925667  .00000980  00000+0  14127-3 0  9999
2 39440  97.7065 341.6398 0078010 261.1291  98.1082 14.76497070438006
NEE-02 KRYSAOR          
1 39441U 13066AB  22017.43753357  .00000783  00000+0  11716-3 0  9992
2 39441  97.7172 338.8473 0079715 273.9952  85.2148 14.75366856437764
FUNCUBE-1 (AO-73)       
1 39444U 13066AE  22017.52073108  .00001091  00000+0  13760-3 0  9998
2 39444  97.6068 358.4645 0057597 167.1122 193.1580 14.82736408439152
UWE-3                   
1 39446U 13066AG  22017.43279980  .00000905  00000+0  12466-3 0  9991
2 39446  97.6656 348.2748 0068288 220.8274 138.7811 14.79037055438139
AEROCUBE 5A             
1 39465U 13072D   22017.50852330  .00027451  00000+0  17952-2 0  9992
2 39465 120.4907 112.9934 0242643 120.2144 242.3174 14.86649272127109
AEROCUBE 5B             
1 39466U 13072E   22017.47533279  .00038290  00000+0  19499-2 0  9998
2 39466 120.4642 185.0556 0195360 134.6748 227.0415 15.01463005127956
BRITE-CA1 (TORONTO)     
1 40020U 14033L   22017.67191786  .00000200  00000+0  42108-4 0  9994
2 40020  97.7534 184.4931 0087924  25.1736 335.3676 14.66835433405664
DUCHIFAT-1              
1 40021U 14033M   22017.53982205  .00002122  00000+0  21589-3 0  9998
2 40021  97.9963 325.3057 0012626 172.1626 187.9792 14.91815607412191
NANOSATC-BR1            
1 40024U 14033Q   22017.57209563  .00001741  00000+0  18254-3 0  9995
2 40024  97.9719 319.4555 0011865 177.9424 182.1844 14.90837632411491
QB50P1                  
1 40025U 14033R   22017.57079479  .00001426  00000+0  15450-3 0  9992
2 40025  97.9498 314.0054 0011925 187.6447 172.4590 14.89772648411292
QB50P2                  
1 40032U 14033Y   22017.54159078  .00001256  00000+0  13852-3 0  9996
2 40032  97.9301 309.8887 0011400 184.7497 175.3613 14.89258376411150
PERSEUS-M2              
1 40037U 14033AD  22017.56943774  .00000529  00000+0  65486-4 0  9990
2 40037  97.8956 300.6986 0013552 208.2265 151.8217 14.86811353410700
PERSEUS-M1              
1 40039U 14033AF  22017.59234816  .00000487  00000+0  61347-4 0  9990
2 40039  97.8874 298.7442 0013413 206.9098 153.1423 14.86429109410595
POLYITAN-1              
1 40042U 14033AJ  22017.57916891  .00001708  00000+0  18437-3 0  9990
2 40042  97.9596 315.0245 0014296 180.1040 180.0176 14.89650287411181
TIGRISAT                
1 40043U 14033AK  22017.47510172  .00000679  00000+0  10638-3 0  9993
2 40043  97.6571 214.8716 0058256 285.9114  73.5681 14.74690828407373
AEROCUBE 6A             
1 40045U 14033AM  22017.51683795  .00001021  00000+0  15173-3 0  9993
2 40045  97.6745 223.1133 0056085 274.4317  85.0488 14.76036236407518
AEROCUBE 6B             
1 40046U 14033AN  22017.51433114  .00001330  00000+0  19503-3 0  9996
2 40046  97.6645 221.7023 0055155 272.8991  86.5908 14.76140074407516
UKUBE-1                 
1 40074U 14037F   22017.56261133  .00000933  00000+0  11688-3 0  9990
2 40074  98.4014 250.2004 0005588  59.7260 300.4515 14.84832411407679
BRITE-PL2 (HEWELIUSZ)   
1 40119U 14049B   22017.53937616  .00000558  00000+0  72001-4 0  9996
2 40119  97.8858 114.7875 0017729  20.5709 339.6215 14.84803197401610
FIREBIRD 4              
1 40378U 15003C   22017.50117192  .00011190  00000+0  37787-3 0  9995
2 40378  99.1122 209.4684 0111066 173.9026 186.3589 15.25106329385385
GRIFEX                  
1 40379U 15003D   22017.44671995  .00011283  00000+0  43236-3 0  9994
2 40379  99.1142 196.8006 0123018 211.9154 147.4582 15.19904482384660
CP10 (EXOCUBE)          
1 40380U 15003E   22017.45826529  .00007996  00000+0  32770-3 0  9999
2 40380  99.1177 190.3318 0129114 233.6005 125.3259 15.17263305384244
TIANWANG 1A (TW-1A)     
1 40928U 15051D   22017.56763421  .00018625  00000+0  33412-3 0  9998
2 40928  97.0603  42.6021 0006647 220.8666 259.4030 15.49936098354805
EXACTVIEW 9             
1 40936U 15052G   22017.25509357  .00001288  00000+0  90175-4 0  9997
2 40936   6.0015 172.3932 0010458 178.8531 181.1620 14.76843190340823
AEROCUBE 5C             
1 40965U 15058B   22017.55792133  .00001312  00000+0  15515-3 0  9996
2 40965  64.7753 189.0771 0207717 246.5616 111.3530 14.75039947126704
AEROCUBE 7              
1 40966U 15058C   22017.53813807  .00001729  00000+0  19734-3 0  9996
2 40966  64.7755 186.6777 0206216 246.2349 111.7010 14.75459415126690
ATHENOXAT 1             
1 41168U 15077C   22017.51818170  .00005853  00000+0  25009-3 0  9992
2 41168  14.9878 125.6683 0009534 279.8998 172.4631 15.17250767337326
GALASSIA                
1 41170U 15077E   22017.59663567  .00007402  00000+0  32454-3 0  9995
2 41170  14.9888 115.4488 0011474 314.5803  45.3582 15.17304939337254
VELOX-II                
1 41171U 15077F   22017.57124761  .00005464  00000+0  25850-3 0  9990
2 41171  14.9896 181.7873 0008308 167.3839 192.6691 15.13542164336709
HORYU-4                 
1 41340U 16012D   22017.33048598  .00002185  00000+0  15471-3 0  9990
2 41340  31.0036 243.4536 0013414 138.3555 221.8104 15.02337042324977
